NORAD_CAT_ID,OBJECT_NAME,OBJECT_TYPE,EPOCH,MEAN_MOTION,ECCENTRICITY,INCLINATION,RA_OF_ASC_NODE,ARG_OF_PERICENTER,MEAN_ANOMALY,BSTAR,MEAN_MOTION_DOT,MEAN_MOTION_DDOT,TLE_LINE0,TLE_LINE1,TLE_LINE2,SEMIMAJOR_AXIS,PERIOD,APOGEE,PERIGEE,DECAYED
53632.0,STARLINK-4606,PAYLOAD,2023-04-13 15:27:17,15.08840339,0.0001371,53.2169,307.3255,90.1963,269.9186,0.00020502,2.977e-05,0.0,0 STARLINK-4606,1 53632U 22104AW  23103.64395578  .00002977  00000-0  20502-3 0  9991,2 53632  53.2169 307.3255 0001371  90.1963 269.9186 15.08840339 35024,6917.879,95.438,540.693,538.796,0.0
53632.0,STARLINK-4606,PAYLOAD,2023-04-13 23:24:13,15.08849847,0.0001339,53.2162,305.8401,93.6066,266.5079,0.00027406,4.078e-05,0.0,0 STARLINK-4606,1 53632U 22104AW  23103.97515254  .00004078  00000-0  27406-3 0  9996,2 53632  53.2162 305.8401 0001339  93.6066 266.5079 15.08849847 36094,6917.85,95.437,540.642,538.789,0.0
53632.0,STARLINK-4606,PAYLOAD,2023-04-14 21:39:37,15.08846511,0.0001203,53.2165,301.678,91.3218,268.7912,0.0002821,4.205e-05,0.0,0 STARLINK-4606,1 53632U 22104AW  23104.90251609  .00004205  00000-0  28210-3 0  9997,2 53632  53.2165 301.6780 0001203  91.3218 268.7912 15.08846511 35213,6917.86,95.437,540.558,538.893,0.0
53632.0,STARLINK-4606,PAYLOAD,2023-04-15 13:33:28,15.08838351,0.000102,53.2149,298.7028,97.2504,262.8604,7.8727e-05,9.65e-06,0.0,0 STARLINK-4606,1 53632U 22104AW  23105.56491865  .00000965  00000-0  78727-4 0  9998,2 53632  53.2149 298.7028 0001020  97.2504 262.8604 15.08838351 35313,6917.885,95.438,540.456,539.045,0.0
53632.0,STARLINK-4606,PAYLOAD,2023-04-15 21:30:24,15.08847132,7.17e-05,53.2164,297.2178,90.9832,269.1242,0.00038734,5.883e-05,0.0,0 STARLINK-4606,1 53632U 22104AW  23105.89611688  .00005883  00000-0  38734-3 0  9998,2 53632  53.2164 297.2178 0000717  90.9832 269.1242 15.08847132 36389,6917.859,95.437,540.22,539.228,0.0
53632.0,STARLINK-4606,PAYLOAD,2023-04-16 13:24:16,15.08842138,8.02e-05,53.2167,294.2425,109.2141,250.8938,0.00025132,3.715e-05,0.0,0 STARLINK-4606,1 53632U 22104AW  23106.55851907  .00003715  00000-0  25132-3 0  9992,2 53632  53.2167 294.2425 0000802 109.2141 250.8938 15.08842138 36487,6917.874,95.437,540.294,539.184,0.0
53632.0,STARLINK-4606,PAYLOAD,2023-04-16 19:45:48,15.08850235,7.79e-05,53.2167,293.053,119.3408,240.7662,0.00053515,8.242e-05,0.0,0 STARLINK-4606,1 53632U 22104AW  23106.82347690  .00008242  00000-0  53515-3 0  9997,2 53632  53.2167 293.0530 0000779 119.3408 240.7662 15.08850235 35503,6917.849,95.437,540.253,539.175,0.0
53632.0,STARLINK-4606,PAYLOAD,2023-04-16 21:21:11,15.08851988,8.85e-05,53.2156,292.7547,112.3184,247.7902,0.00062912,9.742e-05,0.0,0 STARLINK-4606,1 53632U 22104AW  23106.88971678  .00009742  00000-0  62912-3 0  9999,2 53632  53.2156 292.7547 0000885 112.3184 247.7902 15.08851988 36531,6917.844,95.437,540.321,539.097,0.0
53632.0,STARLINK-4606,PAYLOAD,2023-04-17 05:18:07,15.08831904,4.93e-05,53.2153,291.2672,122.7128,237.3912,-0.00020945,-3.619e-05,0.0,0 STARLINK-4606,1 53632U 22104AW  23107.22091826 -.00003619  00000-0 -20945-3 0  9995,2 53632  53.2153 291.2672 0000493 122.7128 237.3912 15.08831904 36586,6917.905,95.438,540.111,539.429,0.0
53632.0,STARLINK-4606,PAYLOAD,2023-04-17 19:36:35,15.08850592,8.32e-05,53.2149,288.5902,98.7478,261.3608,0.00075147,0.00011695,0.0,0 STARLINK-4606,1 53632U 22104AW  23107.81707871  .00011695  00000-0  75147-3 0  9999,2 53632  53.2149 288.5902 0000832  98.7478 261.3608 15.08850592 35653,6917.848,95.437,540.289,539.137,0.0
53632.0,STARLINK-4606,PAYLOAD,2023-04-17 21:11:58,15.08852847,8.24e-05,53.2148,288.2927,98.5997,261.5089,0.00083598,0.00013046,0.0,0 STARLINK-4606,1 53632U 22104AW  23107.88331828  .00013046  00000-0  83598-3 0  9992,2 53632  53.2148 288.2927 0000824  98.5997 261.5089 15.08852847 36685,6917.841,95.437,540.276,539.136,0.0
53632.0,STARLINK-4606,PAYLOAD,2023-04-18 05:08:54,15.08839182,0.0001092,53.2148,286.8097,66.0266,294.084,0.00044573,6.813e-05,0.0,0 STARLINK-4606,1 53632U 22104AW  23108.21452337  .00006813  00000-0  44573-3 0  9993,2 53632  53.2148 286.8097 0001092  66.0266 294.0840 15.08839182 35710,6917.883,95.438,540.503,538.992,0.0
53632.0,STARLINK-4606,PAYLOAD,2023-04-18 11:30:27,15.0883749,0.0001186,53.2145,285.6191,68.5144,291.5975,0.00034565,5.217e-05,0.0,0 STARLINK-4606,1 53632U 22104AW  23108.47948474  .00005217  00000-0  34565-3 0  9990,2 53632  53.2145 285.6191 0001186  68.5144 291.5975 15.08837490 36773,6917.888,95.438,540.574,538.933,0.0
53632.0,STARLINK-4606,PAYLOAD,2023-04-18 17:52:00,15.08839606,0.0001151,53.2149,284.4301,66.8516,293.2598,0.00029679,4.439e-05,0.0,0 STARLINK-4606,1 53632U 22104AW  23108.74444490  .00004439  00000-0  29679-3 0  9994,2 53632  53.2149 284.4301 0001151  66.8516 293.2598 15.08839606 36819,6917.882,95.438,540.543,538.95,0.0
53632.0,STARLINK-4606,PAYLOAD,2023-04-19 11:21:14,15.08841281,7.92e-05,53.2154,281.1571,72.5939,287.514,0.00020158,2.922e-05,0.0,0 STARLINK-4606,1 53632U 22104AW  23109.47308451  .00002922  00000-0  20158-3 0  9999,2 53632  53.2154 281.1571 0000792  72.5939 287.5140 15.08841281 36924,6917.876,95.437,540.289,539.194,0.0
53632.0,STARLINK-4606,PAYLOAD,2023-04-19 17:42:46,15.08849819,8.78e-05,53.2157,279.9699,57.7282,302.3795,0.0003404,5.135e-05,0.0,0 STARLINK-4606,1 53632U 22104AW  23109.73804149  .00005135  00000-0  34040-3 0  9997,2 53632  53.2157 279.9699 0000878  57.7282 302.3795 15.08849819 36965,6917.85,95.437,540.323,539.108,0.0
53632.0,STARLINK-4606,PAYLOAD,2023-04-20 04:50:28,15.0885209,8.12e-05,53.2142,277.8873,55.5794,304.5275,0.00029556,4.421e-05,0.0,0 STARLINK-4606,1 53632U 22104AW  23110.20171818  .00004421  00000-0  29556-3 0  9994,2 53632  53.2142 277.8873 0000812  55.5794 304.5275 15.08852090 37033,6917.843,95.437,540.27,539.147,0.0
53632.0,STARLINK-4606,PAYLOAD,2023-04-20 17:33:33,15.08840021,8.19e-05,53.215,275.5067,65.0136,295.0941,4.2663e-05,3.91e-06,0.0,0 STARLINK-4606,1 53632U 22104AW  23110.73164199  .00000391  00000-0  42663-4 0  9993,2 53632  53.2150 275.5067 0000819  65.0136 295.0941 15.08840021 37119,6917.88,95.438,540.312,539.179,0.0
53632.0,STARLINK-4606,PAYLOAD,2023-04-20 22:19:42,15.08850812,9.63e-05,53.2163,274.6134,74.767,285.3428,0.00030649,4.595e-05,0.0,0 STARLINK-4606,1 53632U 22104AW  23110.93035852  .00004595  00000-0  30649-3 0  9998,2 53632  53.2163 274.6134 0000963  74.7670 285.3428 15.08850812 36129,6917.847,95.437,540.379,539.046,0.0
53632.0,STARLINK-4606,PAYLOAD,2023-04-21 20:35:07,15.08848501,8.72e-05,53.2148,270.4512,81.9707,278.1384,0.0003512,5.307e-05,0.0,0 STARLINK-4606,1 53632U 22104AW  23111.85772155  .00005307  00000-0  35120-3 0  9995,2 53632  53.2148 270.4512 0000872  81.9707 278.1384 15.08848501 36264,6917.854,95.437,540.323,539.116,0.0
53632.0,STARLINK-4606,PAYLOAD,2023-04-21 22:10:30,15.08851526,7.77e-05,53.2153,270.1542,83.287,276.821,0.00067026,0.00010399,0.0,0 STARLINK-4606,1 53632U 22104AW  23111.92396146  .00010399  00000-0  67026-3 0  9992,2 53632  53.2153 270.1542 0000777  83.2870 276.8210 15.08851526 37298,6917.845,95.437,540.248,539.173,0.0
53632.0,STARLINK-4606,PAYLOAD,2023-04-22 17:15:08,15.08851357,0.0001734,53.2167,266.585,85.457,274.662,0.00045475,6.959e-05,0.0,0 STARLINK-4606,1 53632U 22104AW  23112.71884366  .00006959  00000-0  45475-3 0  9997,2 53632  53.2167 266.5850 0001734  85.4570 274.6620 15.08851357 37416,6917.846,95.437,540.91,538.511,0.0
53632.0,STARLINK-4606,PAYLOAD,2023-04-23 10:44:23,15.08829838,8.48e-05,53.2158,263.3145,71.5952,288.5133,0.00027121,4.03e-05,0.0,0 STARLINK-4606,1 53632U 22104AW  23113.44749031  .00004030  00000-0  27121-3 0  9993,2 53632  53.2158 263.3145 0000848  71.5952 288.5133 15.08829838 36504,6917.911,95.438,540.363,539.19,0.0
53632.0,STARLINK-4606,PAYLOAD,2023-04-23 20:16:41,15.08859511,9.57e-05,53.2156,261.5301,84.6429,275.4672,0.0015045,0.0002375,0.0,0 STARLINK-4606,1 53632U 22104AW  23113.84492831  .00023750  00000-0  15045-2 0  9991,2 53632  53.2156 261.5301 0000957  84.6429 275.4672 15.08859511 37584,6917.821,95.436,540.348,539.024,0.0
53632.0,STARLINK-4606,PAYLOAD,2023-04-24 02:38:14,15.08858681,8.47e-05,53.2159,260.3414,84.9334,275.1755,0.0015447,0.00024394,0.0,0 STARLINK-4606,1 53632U 22104AW  23114.10988921  .00024394  00000-0  15447-2 0  9992,2 53632  53.2159 260.3414 0000847  84.9334 275.1755 15.08858681 37626,6917.823,95.436,540.274,539.102,0.0
53632.0,STARLINK-4606,PAYLOAD,2023-04-25 08:50:33,15.08786458,0.0002742,53.2145,254.6908,93.0618,267.0688,0.0012327,0.00019357,0.0,0 STARLINK-4606,1 53632U 22104AW  23115.36844562  .00019357  00000-0  12327-2 0  9990,2 53632  53.2145 254.6908 0002742  93.0618 267.0688 15.08786458 36791,6918.044,95.441,541.806,538.012,0.0
53632.0,STARLINK-4606,PAYLOAD,2023-04-26 11:52:09,15.08818559,0.0004089,53.2062,249.6312,108.9716,251.1719,0.00099637,0.00015597,0.0,0 STARLINK-4606,1 53632U 22104AW  23116.49455309  .00015597  00000-0  99637-3 0  9994,2 53632  53.2062 249.6312 0004089 108.9716 251.1719 15.08818559 36969,6917.946,95.439,542.64,536.982,0.0
53632.0,STARLINK-4606,PAYLOAD,2023-04-26 18:13:42,15.08825812,0.0001159,53.2171,248.4496,111.4614,248.6502,0.00094069,0.00014709,0.0,0 STARLINK-4606,1 53632U 22104AW  23116.75951459  .00014709  00000-0  94069-3 0  9998,2 53632  53.2171 248.4496 0001159 111.4614 248.6502 15.08825812 38021,6917.924,95.438,540.591,538.987,0.0
53632.0,STARLINK-4606,PAYLOAD,2023-04-27 11:42:55,15.08877116,7.96e-05,53.2151,245.176,114.6751,245.4324,0.001586,0.00025069,0.0,0 STARLINK-4606,1 53632U 22104AW  23117.48814230  .00025069  00000-0  15860-2 0  9996,2 53632  53.2151 245.1760 0000796 114.6751 245.4324 15.08877116 38133,6917.767,95.435,540.183,539.081,0.0
53632.0,STARLINK-4606,PAYLOAD,2023-04-27 18:04:27,15.08894013,7.25e-05,53.2156,243.9876,103.2385,256.8688,0.0019002,0.00030128,0.0,0 STARLINK-4606,1 53632U 22104AW  23117.75309425  .00030128  00000-0  19002-2 0  9995,2 53632  53.2156 243.9876 0000725 103.2385 256.8688 15.08894013 37156,6917.715,95.434,540.082,539.079,0.0
